OBJECT_NAME,OBJECT_ID,EPOCH,MEAN_MOTION,ECCENTRICITY,INCLINATION,RA_OF_ASC_NODE,ARG_OF_PERICENTER,MEAN_ANOMALY,EPHEMERIS_TYPE,CLASSIFICATION_TYPE,NORAD_CAT_ID,ELEMENT_SET_NO,REV_AT_EPOCH,BSTAR,MEAN_MOTION_DOT,MEAN_MOTION_DDOT
EXPRESS-MD2,2012-044B,2026-07-05T12:19:36.564096,12.44830466,.1562234,49.8325,4.7668,221.7563,125.3167,0,U,38745,999,56309,.66378E-3,.38319E-3,.45861E-5
INTELSAT 21 (IS-21),2012-045A,2026-07-06T06:40:25.247136,1.00270845,.00018113,0.0132,307.7593,176.1491,202.4652,0,U,38749,999,5071,0,-.27E-5,0
SPOT 6,2012-047A,2026-07-06T06:27:42.646176,14.58535872,.00011807,98.2107,254.3544,79.3379,280.7953,0,U,38755,999,73583,.12737756E-3,.546E-5,0
SMDC ONE 1.2,2012-048B,2026-07-06T04:51:24.768000,15.21257315,.00897999,64.6571,115.8647,170.7727,189.5077,0,U,38759,999,11904,.32950266E-3,.8035E-4,0
CINEMA,2012-048G,2026-07-05T22:20:28.608288,15.49284466,.00391969,64.6434,21.3476,172.6573,187.5150,0,U,38764,999,12014,.71953469E-3,.40767E-3,0
AEROCUBE 4.5A,2012-048K,2026-06-29T19:35:03.540480,16.17962819,.00188678,64.6148,340.0554,267.4936,92.4076,0,U,38767,999,37468,.11805476E-2,.2026816E-1,.7424434E-5
METOP-B,2012-049A,2026-07-06T06:22:24.618144,14.21444712,.00011542,98.6494,238.3833,309.7988,50.3088,0,U,38771,999,71597,.6687728E-4,.103E-5,0
BEIDOU-2 M6,2012-050B,2026-07-05T02:05:40.092576,1.86230975,.0013196,56.5596,62.3027,0.0067,0.0613,0,U,38775,999,9364,0,-.37E-6,0
ASTRA 2F,2012-051A,2026-07-06T07:05:00.390624,1.00273652,.00026028,0.0625,250.0976,288.7155,239.9308,0,U,38778,999,4132,0,.164E-5,0
GSAT-10,2012-051B,2026-07-06T03:55:18.418368,1.00269564,.00078919,0.0430,239.0013,215.6937,331.2743,0,U,38779,999,5028,0,-.15E-5,0
VRSS-1,2012-052A,2026-07-06T06:48:04.127040,14.80054513,.00177925,97.6168,162.6380,169.3761,190.7831,0,U,38782,999,74243,.1943098E-3,.1426E-4,0
NAVSTAR 67 (USA 239),2012-053A,2026-07-05T18:18:56.114208,2.00567790,.01814078,53.5886,142.8384,66.0586,295.8053,0,U,38833,999,9981,0,.67E-6,0
GSAT0103 (GALILEO-FM3),2012-055A,2026-07-05T01:45:34.213824,1.70473389,.0004125,55.8163,101.0549,308.6335,51.3483,0,U,38857,999,8531,0,.1E-7,0
SJ-9A,2012-056A,2026-07-06T05:27:02.319552,14.85516636,.00251595,97.6720,158.4914,191.2491,168.8166,0,U,38860,999,70241,.14081651E-3,.117E-4,0
SJ-9B,2012-056B,2026-07-05T21:33:43.011936,14.91390034,.00161535,97.5990,170.3262,147.3871,212.8349,0,U,38861,999,74251,.27414218E-3,.2689E-4,0
INTELSAT 23 (IS-23),2012-057A,2026-07-06T06:41:55.104000,1.00275993,.00004079,0.0109,47.6735,93.5232,190.5418,0,U,38867,999,5014,0,-.27E-5,0
BEIDOU-2 G6,2012-059A,2026-07-06T07:20:51.371232,1.00269384,.00092052,4.4669,73.3216,330.2502,74.9215,0,U,38953,999,5010,0,-.162E-5,0
LUCH-5B,2012-061A,2026-07-05T22:19:05.767104,1.00272165,.00033231,10.5217,49.6926,137.7842,54.9775,0,U,38977,999,4979,0,-.128E-5,0
YAMAL 300K,2012-061B,2026-07-06T04:23:53.177568,1.00271443,.000023,0.0332,230.9791,58.3323,243.7849,0,U,38978,999,4982,0,.85E-6,0
STAR ONE C3,2012-062A,2026-07-06T06:35:40.701696,1.00271260,.00022471,0.0200,24.9874,95.3666,187.8298,0,U,38991,999,4995,0,0,0
EUTELSAT 21B,2012-062B,2026-07-06T07:02:45.605760,1.00270025,.00032452,0.0647,355.0771,109.4037,307.0740,0,U,38992,999,5001,0,.144E-5,0
ECHOSTAR 16,2012-065A,2026-07-06T06:39:25.343424,1.00271171,.00019226,0.0186,28.8953,82.6089,211.1240,0,U,39008,999,4983,0,-.267E-5,0
YAOGAN-16 01A,2012-066A,2026-07-06T06:43:38.920512,13.45517339,.0436978,63.3519,240.4895,27.2724,335.0530,0,U,39011,999,66871,.28325646E-4,-.61E-6,0
YAOGAN-16 01B,2012-066B,2026-07-06T06:50:19.113216,13.45514128,.04371764,63.3524,240.6991,27.0143,335.2925,0,U,39012,999,66867,.32005025E-4,-.57E-6,0
YAOGAN-16 01C,2012-066C,2026-07-06T06:50:18.205152,13.45505348,.04373036,63.3527,240.1965,26.5809,335.6933,0,U,39013,999,66870,.9102956E-5,-.81E-6,0
ZHONGXING-12,2012-067A,2026-07-06T03:56:40.786944,1.00271201,.00031172,0.0453,93.4761,1.9507,335.4051,0,U,39017,999,4969,0,-.192E-5,0
PLEIADES 1B,2012-068A,2026-07-06T06:54:30.995136,14.58573425,.00016559,98.1938,262.0766,83.0411,277.0976,0,U,39019,999,72363,.99777013E-4,.418E-5,0
EUTELSAT 70B,2012-069A,2026-07-06T03:10:38.698176,1.00271410,.0003506,0.0631,14.6799,88.7230,298.8584,0,U,39020,999,4969,0,-.29E-6,0
YAMAL 402,2012-070A,2026-07-06T05:29:57.649344,1.00271823,.00038162,1.3105,83.9338,18.9241,318.7409,0,U,39022,999,4958,0,.1E-5,0
GOKTURK 2,2012-073A,2026-07-06T06:31:19.970688,14.75562792,.00009656,97.6813,23.7454,68.4821,291.6492,0,U,39030,999,72732,.79366009E-4,.494E-5,0
SKYNET 5D,2012-075A,2026-07-06T05:29:20.208768,1.00271856,.00037413,0.0662,4.3955,109.5389,305.3703,0,U,39034,999,4934,0,.114E-5,0
MEXSAT 3,2012-075B,2026-07-06T04:41:37.057056,1.00267241,.0001228,0.0162,21.1626,81.6830,136.9514,0,U,39035,999,724,0,0,0
COSMOS 2482 (RODNIK-S 4),2013-001A,2026-07-06T06:38:27.095136,12.42996332,.00270871,82.4961,208.4834,346.1704,13.8631,0,U,39057,999,61108,-.92209558E-3,-.118E-5,0
COSMOS 2483 (RODNIK-S 5),2013-001B,2026-07-06T06:09:57.301344,12.44025006,.00159564,82.4976,203.0244,335.7073,24.3253,0,U,39058,999,60396,-.82524343E-3,-.106E-5,0
COSMOS 2484 (RODNIK-S 6),2013-001C,2026-07-06T05:21:09.806688,12.42939643,.00260538,82.4995,210.0578,355.4401,4.6438,0,U,39059,999,61092,-.60473509E-3,-.74E-6,0
TDRS 11,2013-004A,2026-07-06T07:23:53.501568,1.00276265,.00048382,3.5488,31.5678,27.4926,161.8562,0,U,39070,999,4688,0,.93E-6,0
GLOBALSTAR M097,2013-005A,2026-07-06T04:00:37.008864,12.62271324,.00002212,52.0014,185.5594,39.5863,320.5020,0,U,39072,999,61930,-.908392E-6,-.104E-5,0
GLOBALSTAR M093,2013-005B,2026-07-05T06:27:44.413056,12.62266172,.0000399,52.0075,181.6456,33.0659,327.0233,0,U,39073,999,61914,-.23626E-4,-.108E-5,0
GLOBALSTAR M094,2013-005C,2026-07-06T03:21:47.989728,12.62268515,.00008598,51.9958,93.0930,45.9390,314.1548,0,U,39074,999,62086,.75598043E-4,-.9E-6,0
GLOBALSTAR M096,2013-005D,2026-07-06T05:35:18.379968,12.62265613,.00005266,52.0052,141.6262,24.7774,335.3118,0,U,39075,999,61979,.63036957E-4,-.92E-6,0
GLOBALSTAR M078,2013-005E,2026-07-06T03:02:32.397504,12.62259987,.00006293,51.9849,225.9353,309.4473,50.6338,0,U,39076,999,61840,.10696278E-4,-.102E-5,0
GLOBALSTAR M095,2013-005F,2026-07-06T07:29:02.330592,12.62263954,.00002034,52.0057,223.0026,2.4880,357.5987,0,U,39077,999,61828,.26567358E-4,-.99E-6,0
AMAZONAS 3,2013-006A,2026-07-06T04:57:00.806976,1.00269911,.00032776,0.0372,197.4724,312.5865,147.3839,0,U,39078,999,4510,0,-.268E-5,0
AZERSPACE 1,2013-006B,2026-07-06T03:44:49.422912,1.00274839,.00019176,0.0177,346.7132,154.1970,245.4253,0,U,39079,999,4899,0,.147E-5,0
LANDSAT 8,2013-008A,2026-07-06T06:03:22.591584,14.57107773,.00013508,98.2294,257.1605,94.1830,265.9523,0,U,39084,999,70067,.84207898E-4,.334E-5,0
SARAL,2013-009A,2026-07-06T05:51:41.929920,14.32894183,.00011425,98.5554,13.5704,193.1196,166.9959,0,U,39086,999,69833,.46971522E-4,.85E-6,0
SAPPHIRE,2013-009C,2026-07-06T06:19:46.049952,14.35245866,.00110125,98.4270,6.2673,186.0885,174.0169,0,U,39088,999,69931,.51519041E-4,.105E-5,0
NEOSSAT,2013-009D,2026-07-05T11:12:59.306112,14.35833373,.0010818,98.4185,6.0659,185.7712,174.3351,0,U,39089,999,69936,.9131E-4,.222E-5,0
STRAND-1,2013-009E,2026-07-05T10:27:58.912992,14.37175147,.0008827,98.3930,6.2219,168.5564,191.5825,0,U,39090,999,69968,.1469E-3,.394E-5,0
BRITE-AUSTRIA,2013-009F,2026-07-05T22:39:59.738688,14.36549906,.00101887,98.4004,5.9166,177.3840,182.7402,0,U,39091,999,69974,.82602154E-4,.2E-5,0
SBIRS GEO-2 (USA 241),2013-011A,2026-07-06T05:06:31.282848,1.00271484,.00019999,4.5298,52.5133,45.4562,213.0498,0,U,39120,999,4872,0,-.274E-5,0
EUTELSAT 117 WEST A,2013-012A,2026-07-06T04:40:59.615616,1.00271659,.00028199,0.0107,0.2900,108.2217,129.1037,0,U,39122,999,4862,0,.2E-7,0
ANIK G1,2013-014A,2026-07-06T06:26:26.587392,1.00271464,.00017184,0.0189,40.6379,72.5543,160.3667,0,U,39127,999,4844,0,-.6E-6,0
GAOFEN-1,2013-018A,2026-07-06T07:24:55.598976,14.76514729,.00163045,97.9084,258.9884,200.1331,159.9237,0,U,39150,999,71106,.20175487E-3,.1358E-4,0
NEE-01 PEGASO,2013-018B,2026-07-05T05:14:47.136768,14.93758890,.0013941,98.1251,330.9673,104.1848,256.0920,0,U,39151,999,71339,.43662E-3,.4574E-4,0
COSMOS 2485 [GLONASS-M],2013-019A,2026-07-05T05:04:01.991424,2.13103534,.0022949,65.4295,72.9996,232.3284,127.5298,0,U,39155,999,10266,0,-.11E-6,0
ZHONGXING-11,2013-020A,2026-07-06T02:16:59.760768,1.00273534,.00026488,0.0153,19.2689,61.4711,335.5024,0,U,39157,999,4808,0,-.276E-5,0
PROBA-V,2013-021A,2026-07-06T00:37:02.458560,14.23602059,.00054231,98.3597,164.7033,80.6157,279.5636,0,U,39159,999,68379,.74533771E-4,.129E-5,0
VNREDSAT 1,2013-021B,2026-07-06T06:47:46.547232,14.64879102,.00016717,97.9064,239.9661,83.2786,276.8608,0,U,39160,999,70308,.17836309E-3,.908E-5,0
EUTELSAT 7B,2013-022A,2026-07-06T06:59:00.964896,1.00271137,.00039775,0.0641,353.2770,53.8551,348.8896,0,U,39163,999,4813,0,.62E-6,0
NAVSTAR 68 (USA 242),2013-023A,2026-07-05T15:08:05.247456,2.00563404,.01414117,54.4899,268.2219,51.0972,310.2223,0,U,39166,999,9625,0,-.11E-6,0
WGS F5 (USA 243),2013-024A,2026-07-06T03:16:44.615136,1.00268635,.00002851,0.0194,25.4980,171.3960,83.9146,0,U,39168,999,4736,0,0,0
SES-6,2013-026A,2026-07-06T05:02:45.256992,1.00271085,.0002555,0.0168,353.9474,104.9644,220.4748,0,U,39172,999,4791,0,-.247E-5,0
COSMOS 2486,2013-028A,2026-07-06T07:43:20.983296,14.56203899,.00101385,98.0154,153.9772,323.5298,36.5209,0,U,39177,999,69416,.13109697E-3,.536E-5,0
O3B FM5,2013-031A,2026-07-06T00:42:35.993664,5.00115619,.00028568,0.0962,338.1529,112.4511,269.4291,0,U,39188,999,23798,0,-.1E-6,0
O3B FM4,2013-031B,2026-07-05T22:46:45.338304,5.00115244,.00051431,0.0404,346.1505,100.8719,273.0366,0,U,39189,999,23798,0,-.1E-6,0
O3B FM2,2013-031C,2026-07-06T00:21:02.538144,5.00116095,.00027166,0.0356,342.7866,118.5813,258.6629,0,U,39190,999,23805,0,-.1E-6,0
O3B PFM,2013-031D,2026-07-05T15:05:41.546976,5.00116033,.00053176,0.0670,348.3361,106.7827,264.9420,0,U,39191,999,23759,0,-.11E-6,0
